[{"OBJECT_NAME":"GAOFEN-9 05","OBJECT_ID":"2020-058A","EPOCH":"2026-03-10T00:01:50.876256","MEAN_MOTION":15.30293976,"ECCENTRICITY":0.0010522,"INCLINATION":97.2228,"RA_OF_ASC_NODE":111.963,"ARG_OF_PERICENTER":91.0204,"MEAN_ANOMALY":269.2242,"EPHEMERIS_TYPE":0,"CLASSIFICATION_TYPE":"U","NORAD_CAT_ID":46232,"ELEMENT_SET_NO":999,"REV_AT_EPOCH":30843,"BSTAR":0.00025120304,"MEAN_MOTION_DOT":7.299e-5,"MEAN_MOTION_DDOT":0},{"OBJECT_NAME":"STARLINK-36437","OBJECT_ID":"2026-008W","EPOCH":"2026-03-09T10:04:35.305248","MEAN_MOTION":15.27595844,"ECCENTRICITY":0.00014925,"INCLINATION":42.9983,"RA_OF_ASC_NODE":206.5018,"ARG_OF_PERICENTER":276.6347,"MEAN_ANOMALY":83.4335,"EPHEMERIS_TYPE":0,"CLASSIFICATION_TYPE":"U","NORAD_CAT_ID":67465,"ELEMENT_SET_NO":999,"REV_AT_EPOCH":953,"BSTAR":0.0010159674,"MEAN_MOTION_DOT":0.00027814,"MEAN_MOTION_DDOT":0}]
